NORAD_CAT_ID,OBJECT_NAME,OBJECT_TYPE,EPOCH,MEAN_MOTION,ECCENTRICITY,INCLINATION,RA_OF_ASC_NODE,ARG_OF_PERICENTER,MEAN_ANOMALY,BSTAR,MEAN_MOTION_DOT,MEAN_MOTION_DDOT,TLE_LINE0,TLE_LINE1,TLE_LINE2,SEMIMAJOR_AXIS,PERIOD,APOGEE,PERIGEE,DECAYED
54091.0,STARLINK-5221,PAYLOAD,2024-07-24 22:23:04,15.08849968,0.0001529,53.2168,114.7131,112.3613,247.7541,2.0168e-05,3.3e-07,0.0,0 STARLINK-5221,1 54091U 22136AS  24206.93269589  .00000033  00000-0  20168-4 0  9995,2 54091  53.2168 114.7131 0001529 112.3613 247.7541 15.08849968 97507,6917.85,95.437,540.773,538.657,0.0
54091.0,STARLINK-5221,PAYLOAD,2024-07-25 01:33:51,15.08851732,0.0001331,53.216,114.118,94.2133,265.9012,0.00053052,8.168e-05,0.0,0 STARLINK-5221,1 54091U 22136AS  24207.06517846  .00008168  00000-0  53052-3 0  9996,2 54091  53.2160 114.1180 0001331  94.2133 265.9012 15.08851732 97993,6917.845,95.437,540.63,538.789,0.0
54091.0,STARLINK-5221,PAYLOAD,2024-07-25 17:27:43,15.0884375,0.0001419,53.2162,111.1445,93.1487,266.9668,0.00033571,5.059e-05,0.0,0 STARLINK-5221,1 54091U 22136AS  24207.72758322  .00005059  00000-0  33571-3 0  9995,2 54091  53.2162 111.1445 0001419  93.1487 266.9668 15.08843750 98094,6917.869,95.437,540.716,538.752,0.0
54091.0,STARLINK-5221,PAYLOAD,2024-07-25 23:49:15,15.08842251,0.0001336,53.2158,109.9545,95.4469,264.6676,0.00025077,3.706e-05,0.0,0 STARLINK-5221,1 54091U 22136AS  24207.99254335  .00003706  00000-0  25077-3 0  9998,2 54091  53.2158 109.9545 0001336  95.4469 264.6676 15.08842251 97669,6917.874,95.437,540.663,538.814,0.0
54091.0,STARLINK-5221,PAYLOAD,2024-07-26 10:56:57,15.08844958,0.0001436,53.2156,107.8729,85.9083,274.2074,0.00036606,5.543e-05,0.0,0 STARLINK-5221,1 54091U 22136AS  24208.45622376  .00005543  00000-0  36606-3 0  9995,2 54091  53.2156 107.8729 0001436  85.9083 274.2074 15.08844958 98201,6917.865,95.437,540.724,538.737,0.0
54091.0,STARLINK-5221,PAYLOAD,2024-07-27 21:55:26,15.08836938,8.61e-05,53.2133,101.3247,119.5591,240.5487,0.00015746,2.219e-05,0.0,0 STARLINK-5221,1 54091U 22136AS  24209.91350276  .00002219  00000-0  15746-3 0  9993,2 54091  53.2133 101.3247 0000861 119.5591 240.5487 15.08836938 97953,6917.89,95.438,540.35,539.159,0.0
54091.0,STARLINK-5221,PAYLOAD,2024-07-27 23:30:51,15.08808135,0.0001372,53.2149,101.0257,117.9329,242.1802,0.0010616,0.00016633,0.0,0 STARLINK-5221,1 54091U 22136AS  24209.97976079  .00016633  00000-0  10616-2 0  9999,2 54091  53.2149 101.0257 0001372 117.9329 242.1802 15.08808135 98438,6917.978,95.44,540.792,538.894,0.0
54091.0,STARLINK-5221,PAYLOAD,2024-07-28 20:10:51,15.08837647,0.0001302,53.2157,97.1641,90.0222,270.0919,2.1657e-05,5.7e-07,0.0,0 STARLINK-5221,1 54091U 22136AS  24210.84086883  .00000057  00000-0  21657-4 0  9994,2 54091  53.2157  97.1641 0001302  90.0222 270.0919 15.08837647 98568,6917.888,95.438,540.653,538.852,0.0
54091.0,STARLINK-5221,PAYLOAD,2024-07-28 23:21:37,15.08841066,0.0001353,53.2159,96.57,86.5309,273.5838,3.7985e-05,3.17e-06,0.0,0 STARLINK-5221,1 54091U 22136AS  24210.97334590  .00000317  00000-0  37985-4 0  9999,2 54091  53.2159  96.5700 0001353  86.5309 273.5838 15.08841066 98110,6917.877,95.437,540.678,538.806,0.0
54091.0,STARLINK-5221,PAYLOAD,2024-07-29 08:53:56,15.08831156,0.000144,53.2162,94.7886,93.8728,266.2429,0.00013542,1.867e-05,0.0,0 STARLINK-5221,1 54091U 22136AS  24211.37078923  .00001867  00000-0  13542-3 0  9992,2 54091  53.2162  94.7886 0001440  93.8728 266.2429 15.08831156 98172,6917.907,95.438,540.769,538.776,0.0
54091.0,STARLINK-5221,PAYLOAD,2024-07-29 21:37:01,15.08835508,0.0001371,53.2164,92.4091,93.5308,266.5841,0.00015417,2.166e-05,0.0,0 STARLINK-5221,1 54091U 22136AS  24211.90070971  .00002166  00000-0  15417-3 0  9992,2 54091  53.2164  92.4091 0001371  93.5308 266.5841 15.08835508 98728,6917.894,95.438,540.708,538.811,0.0
54091.0,STARLINK-5221,PAYLOAD,2024-07-29 23:12:24,15.08838214,0.0001577,53.217,92.115,109.8908,250.2254,0.00019811,2.866e-05,0.0,0 STARLINK-5221,1 54091U 22136AS  24211.96694734  .00002866  00000-0  19811-3 0  9996,2 54091  53.2170  92.1150 0001577 109.8908 250.2254 15.08838214 98267,6917.886,95.438,540.842,538.66,0.0
54091.0,STARLINK-5221,PAYLOAD,2024-07-30 08:44:42,15.08844188,0.0001423,53.2172,90.3287,95.1636,264.9518,0.00016581,2.352e-05,0.0,0 STARLINK-5221,1 54091U 22136AS  24212.36438490  .00002352  00000-0  16581-3 0  9997,2 54091  53.2172  90.3287 0001423  95.1636 264.9518 15.08844188 98795,6917.868,95.437,540.717,538.748,0.0
54091.0,STARLINK-5221,PAYLOAD,2024-07-30 23:03:11,15.08844544,0.0001371,53.2165,87.6519,99.3934,260.7213,0.00012749,1.742e-05,0.0,0 STARLINK-5221,1 54091U 22136AS  24212.96054565  .00001742  00000-0  12749-3 0  9994,2 54091  53.2165  87.6519 0001371  99.3934 260.7213 15.08844544 98414,6917.866,95.437,540.68,538.783,0.0
54091.0,STARLINK-5221,PAYLOAD,2024-07-31 08:35:29,15.08848198,0.0001357,53.2174,85.8667,91.9043,268.2105,8.5603e-05,1.075e-05,0.0,0 STARLINK-5221,1 54091U 22136AS  24213.35798306  .00001075  00000-0  85603-4 0  9995,2 54091  53.2174  85.8667 0001357  91.9043 268.2105 15.08848198 98479,6917.855,95.437,540.659,538.782,0.0
54091.0,STARLINK-5221,PAYLOAD,2024-07-31 22:53:58,15.08843066,0.0001254,53.2171,83.1904,90.7645,269.3491,1.3399e-05,-7.5e-07,0.0,0 STARLINK-5221,1 54091U 22136AS  24213.95415056 -.00000075  00000-0  13399-4 0  9992,2 54091  53.2171  83.1904 0001254  90.7645 269.3491 15.08843066 98561,6917.871,95.437,540.604,538.869,0.0
54091.0,STARLINK-5221,PAYLOAD,2024-08-01 08:26:17,15.0884707,0.000141,53.2182,81.4073,88.7534,271.3619,7.93e-05,9.75e-06,0.0,0 STARLINK-5221,1 54091U 22136AS  24214.35158641  .00000975  00000-0  79300-4 0  9993,2 54091  53.2182  81.4073 0001410  88.7534 271.3619 15.08847070 98620,6917.859,95.437,540.699,538.748,0.0
54091.0,STARLINK-5221,PAYLOAD,2024-08-01 22:44:45,15.08852335,0.0001388,53.2159,78.732,80.9958,279.1191,0.00097135,0.0001521,0.0,0 STARLINK-5221,1 54091U 22136AS  24214.94774397  .00015210  00000-0  97135-3 0  9993,2 54091  53.2159  78.7320 0001388  80.9958 279.1191 15.08852335 98717,6917.843,95.437,540.668,538.747,0.0
54091.0,STARLINK-5221,PAYLOAD,2024-08-02 08:17:03,15.08846399,0.0001296,53.2161,76.946,85.1772,274.9368,0.00018112,2.596e-05,0.0,0 STARLINK-5221,1 54091U 22136AS  24215.34518222  .00002596  00000-0  18112-3 0  9992,2 54091  53.2161  76.9460 0001296  85.1772 274.9368 15.08846399 99245,6917.861,95.437,540.622,538.829,0.0
54091.0,STARLINK-5221,PAYLOAD,2024-08-02 14:38:37,15.08837501,0.0002117,53.2157,75.7584,79.859,280.2641,0.00016681,2.367e-05,0.0,0 STARLINK-5221,1 54091U 22136AS  24215.61015156  .00002367  00000-0  16681-3 0  9995,2 54091  53.2157  75.7584 0002117  79.8590 280.2641 15.08837501 98816,6917.888,95.438,541.218,538.289,0.0
54091.0,STARLINK-5221,PAYLOAD,2024-08-02 21:00:09,15.08822423,0.0001449,53.2157,74.5673,83.7575,276.3582,-0.00019728,-3.425e-05,0.0,0 STARLINK-5221,1 54091U 22136AS  24215.87511146 -.00003425  00000-0 -19728-3 0  9996,2 54091  53.2157  74.5673 0001449  83.7575 276.3582 15.08822423 99320,6917.934,95.439,540.802,538.797,0.0
54091.0,STARLINK-5221,PAYLOAD,2024-08-03 08:07:52,15.08832887,0.0001573,53.2162,72.4852,88.1725,271.9447,0.0011621,0.00018252,0.0,0 STARLINK-5221,1 54091U 22136AS  24216.33879869  .00018252  00000-0  11621-2 0  9992,2 54091  53.2162  72.4852 0001573  88.1725 271.9447 15.08832887 99399,6917.902,95.438,540.855,538.679,0.0
54091.0,STARLINK-5221,PAYLOAD,2024-08-03 20:50:57,15.0886648,0.0001515,53.2164,70.1062,85.5357,274.5808,0.0019318,0.00030613,0.0,0 STARLINK-5221,1 54091U 22136AS  24216.86871528  .00030613  00000-0  19318-2 0  9990,2 54091  53.2164  70.1062 0001515  85.5357 274.5808 15.08866480 99001,6917.799,95.436,540.712,538.616,0.0
54091.0,STARLINK-5221,PAYLOAD,2024-08-04 20:41:43,15.08884541,0.0001451,53.2167,65.6454,96.9232,263.1925,0.0034236,0.00054688,0.0,0 STARLINK-5221,1 54091U 22136AS  24217.86230750  .00054688  00000-0  34236-2 0  9991,2 54091  53.2167  65.6454 0001451  96.9232 263.1925 15.08884541 99625,6917.744,95.435,540.613,538.605,0.0
54091.0,STARLINK-5221,PAYLOAD,2024-08-05 20:32:30,15.08851459,0.0001122,53.2167,61.1852,84.2341,275.8779,0.00071736,0.00011151,0.0,0 STARLINK-5221,1 54091U 22136AS  24218.85590697  .00011151  00000-0  71736-3 0  9995,2 54091  53.2167  61.1852 0001122  84.2341 275.8779 15.08851459 99779,6917.845,95.437,540.487,538.934,0.0
54091.0,STARLINK-5221,PAYLOAD,2024-08-06 12:26:21,15.08834511,0.0001636,53.2158,58.2093,89.0904,271.0275,-0.00012542,-2.283e-05,0.0,0 STARLINK-5221,1 54091U 22136AS  24219.51831004 -.00002283  00000-0 -12542-3 0  9997,2 54091  53.2158  58.2093 0001636  89.0904 271.0275 15.08834511 99871,6917.897,95.438,540.894,538.63,0.0
54091.0,STARLINK-5221,PAYLOAD,2024-08-06 14:01:45,15.08838246,0.0001519,53.215,57.9123,89.2347,270.8819,-8.6289e-05,-1.661e-05,0.0,0 STARLINK-5221,1 54091U 22136AS  24219.58454883 -.00001661  00000-0 -86289-4 0  9999,2 54091  53.2150  57.9123 0001519  89.2347 270.8819 15.08838246 99416,6917.886,95.438,540.802,538.7,0.0
54091.0,STARLINK-5221,PAYLOAD,2024-08-06 20:23:17,15.0883903,0.0001386,53.2171,56.7242,100.9142,259.2007,9.1215e-05,1.164e-05,0.0,0 STARLINK-5221,1 54091U 22136AS  24219.84951007  .00001164  00000-0  91215-4 0  9999,2 54091  53.2171  56.7242 0001386 100.9142 259.2007 15.08839030 99450,6917.883,95.438,540.707,538.79,0.0
54091.0,STARLINK-5221,PAYLOAD,2024-08-07 18:38:41,15.08844604,0.0001238,53.2173,52.5612,92.323,267.7904,0.00026894,3.995e-05,0.0,0 STARLINK-5221,1 54091U 22136AS  24220.77687144  .00003995  00000-0  26894-3 0  9995,2 54091  53.2173  52.5612 0001238  92.3230 267.7904 15.08844604100068,6917.866,95.437,540.588,538.875,0.0
54091.0,STARLINK-5221,PAYLOAD,2024-08-08 21:40:15,15.08848386,0.0001329,53.2175,47.505,80.005,280.1092,0.00027287,4.058e-05,0.0,0 STARLINK-5221,1 54091U 22136AS  24221.90295234  .00004058  00000-0  27287-3 0  9994,2 54091  53.2175  47.5050 0001329  80.0050 280.1092 15.08848386100232,6917.855,95.437,540.639,538.8,0.0
